COSMOS 2242             
1 22626U 93024A   26086.55453740  .00001882  00000+0  16263-3 0  9990
2 22626  82.5161 249.6234 0015028 242.9475 117.0214 14.96622663783067
SL-16 R/B               
1 22803U 93059B   26086.61626319 -.00000166  00000+0 -58234-4 0  9997
2 22803  70.9921 333.3257 0017477 190.5770 169.4988 14.17235194682071
ARIANE 40 R/B           
1 22830U 93061H   26086.43547293  .00000205  00000+0  90889-4 0  9997
2 22830  98.4883 154.9702 0009926 226.7841 133.2515 14.32870157696640
COSMOS 2278             
1 23087U 94023A   26086.56150830 -.00000247  00000+0 -10458-3 0  9993
2 23087  71.0520 137.7096 0009107 345.2380  14.8475 14.14375883647338
SL-16 R/B               
1 23088U 94023B   26086.59996358  .00000338  00000+0  19928-3 0  9990
2 23088  71.0014  33.2715 0005456 268.8909  91.1588 14.15014364648626
SL-16 R/B               
1 23343U 94074B   26086.59173059  .00000431  00000+0  64408-4 0  9993
2 23343  97.7083 116.6826 0007200 151.8995 323.4280 14.79427469689893
SL-16 R/B               
1 23405U 94077B   26086.57457569 -.00000019  00000+0  14633-4 0  9992
2 23405  70.9836 314.8647 0002020 197.8268 162.2784 14.15569196618762
ARIANE 40+ R/B          
1 23561U 95021B   26086.45887853  .00000278  00000+0  10237-3 0  9996
2 23561  98.4466 157.6980 0007973  90.6850 279.9781 14.39784847621801
SL-16 R/B               
1 23705U 95058B   26086.58242608 -.00000246  00000+0 -10126-3 0  9997
2 23705  71.0206 142.6924 0010112  92.6332 267.5949 14.15499613570381
SL-16 R/B               
1 24298U 96051B   26086.58799118  .00000091  00000+0  76074-4 0  9993
2 24298  70.7588 137.3571 0013609 119.2534 240.9948 14.12420658524171
ORBVIEW 2 (SEASTAR)     
1 24883U 97037A   26086.47064315  .00000296  00000+0  11900-3 0  9993
2 24883  98.8599 251.2565 0002473  33.8958 326.2384 14.35507038511026
SL-16 R/B               
1 25400U 98043G   26086.48289525  .00000064  00000+0  45982-4 0  9991
2 25400  98.8284  39.9757 0009270 328.6819  31.3807 14.26053768441527
