CCSDS_OMM_VERS = 2.0
CREATION_DATE  = 
ORIGINATOR     = 

OBJECT_NAME    = COSMOS 2242
OBJECT_ID      = 1993-024A
CENTER_NAME    = EARTH
REF_FRAME      = TEME
TIME_SYSTEM    = UTC
MEAN_ELEMENT_THEORY = SGP/SGP4

EPOCH          = 2026-03-27T13:18:32.031360
MEAN_MOTION    = 14.96622663
ECCENTRICITY   = .00150286
INCLINATION    = 82.5161
RA_OF_ASC_NODE = 249.6234
ARG_OF_PERICENTER = 242.9475
MEAN_ANOMALY   = 117.0214

EPHEMERIS_TYPE = 0
CLASSIFICATION_TYPE = U
NORAD_CAT_ID   = 22626
ELEMENT_SET_NO = 999
REV_AT_EPOCH   = 78306
BSTAR          = .1626342E-3
MEAN_MOTION_DOT = .1882E-4
MEAN_MOTION_DDOT = 0

CCSDS_OMM_VERS = 2.0
CREATION_DATE  = 
ORIGINATOR     = 

OBJECT_NAME    = SL-16 R/B
OBJECT_ID      = 1993-059B
CENTER_NAME    = EARTH
REF_FRAME      = TEME
TIME_SYSTEM    = UTC
MEAN_ELEMENT_THEORY = SGP/SGP4

EPOCH          = 2026-03-27T14:47:25.139616
MEAN_MOTION    = 14.17235194
ECCENTRICITY   = .00174772
INCLINATION    = 70.9921
RA_OF_ASC_NODE = 333.3257
ARG_OF_PERICENTER = 190.5770
MEAN_ANOMALY   = 169.4988

EPHEMERIS_TYPE = 0
CLASSIFICATION_TYPE = U
NORAD_CAT_ID   = 22803
ELEMENT_SET_NO = 999
REV_AT_EPOCH   = 68207
BSTAR          = -.58233979E-4
MEAN_MOTION_DOT = -.166E-5
MEAN_MOTION_DDOT = 0

CCSDS_OMM_VERS = 2.0
CREATION_DATE  = 
ORIGINATOR     = 

OBJECT_NAME    = ARIANE 40 R/B
OBJECT_ID      = 1993-061H
CENTER_NAME    = EARTH
REF_FRAME      = TEME
TIME_SYSTEM    = UTC
MEAN_ELEMENT_THEORY = SGP/SGP4

EPOCH          = 2026-03-27T10:27:04.861152
MEAN_MOTION    = 14.32870157
ECCENTRICITY   = .0009926
INCLINATION    = 98.4883
RA_OF_ASC_NODE = 154.9702
ARG_OF_PERICENTER = 226.7841
MEAN_ANOMALY   = 133.2515

EPHEMERIS_TYPE = 0
CLASSIFICATION_TYPE = U
NORAD_CAT_ID   = 22830
ELEMENT_SET_NO = 999
REV_AT_EPOCH   = 69664
BSTAR          = .90888987E-4
MEAN_MOTION_DOT = .205E-5
MEAN_MOTION_DDOT = 0

CCSDS_OMM_VERS = 2.0
CREATION_DATE  = 
ORIGINATOR     = 

OBJECT_NAME    = COSMOS 2278
OBJECT_ID      = 1994-023A
CENTER_NAME    = EARTH
REF_FRAME      = TEME
TIME_SYSTEM    = UTC
MEAN_ELEMENT_THEORY = SGP/SGP4

EPOCH          = 2026-03-27T13:28:34.317120
MEAN_MOTION    = 14.14375883
ECCENTRICITY   = .00091072
INCLINATION    = 71.0520
RA_OF_ASC_NODE = 137.7096
ARG_OF_PERICENTER = 345.2380
MEAN_ANOMALY   = 14.8475

EPHEMERIS_TYPE = 0
CLASSIFICATION_TYPE = U
NORAD_CAT_ID   = 23087
ELEMENT_SET_NO = 999
REV_AT_EPOCH   = 64733
BSTAR          = -.10458369E-3
MEAN_MOTION_DOT = -.247E-5
MEAN_MOTION_DDOT = 0

CCSDS_OMM_VERS = 2.0
CREATION_DATE  = 
ORIGINATOR     = 

OBJECT_NAME    = SL-16 R/B
OBJECT_ID      = 1994-023B
CENTER_NAME    = EARTH
REF_FRAME      = TEME
TIME_SYSTEM    = UTC
MEAN_ELEMENT_THEORY = SGP/SGP4

EPOCH          = 2026-03-27T14:23:56.853312
MEAN_MOTION    = 14.15014364
ECCENTRICITY   = .00054567
INCLINATION    = 71.0014
RA_OF_ASC_NODE = 33.2715
ARG_OF_PERICENTER = 268.8909
MEAN_ANOMALY   = 91.1588

EPHEMERIS_TYPE = 0
CLASSIFICATION_TYPE = U
NORAD_CAT_ID   = 23088
ELEMENT_SET_NO = 999
REV_AT_EPOCH   = 64862
BSTAR          = .19928214E-3
MEAN_MOTION_DOT = .338E-5
MEAN_MOTION_DDOT = 0

CCSDS_OMM_VERS = 2.0
CREATION_DATE  = 
ORIGINATOR     = 

OBJECT_NAME    = SL-16 R/B
OBJECT_ID      = 1994-074B
CENTER_NAME    = EARTH
REF_FRAME      = TEME
TIME_SYSTEM    = UTC
MEAN_ELEMENT_THEORY = SGP/SGP4

EPOCH          = 2026-03-27T14:12:05.522976
MEAN_MOTION    = 14.79427469
ECCENTRICITY   = .00072003
INCLINATION    = 97.7083
RA_OF_ASC_NODE = 116.6826
ARG_OF_PERICENTER = 151.8995
MEAN_ANOMALY   = 323.4280

EPHEMERIS_TYPE = 0
CLASSIFICATION_TYPE = U
NORAD_CAT_ID   = 23343
ELEMENT_SET_NO = 999
REV_AT_EPOCH   = 68989
BSTAR          = .64407649E-4
MEAN_MOTION_DOT = .431E-5
MEAN_MOTION_DDOT = 0

CCSDS_OMM_VERS = 2.0
CREATION_DATE  = 
ORIGINATOR     = 

OBJECT_NAME    = SL-16 R/B
OBJECT_ID      = 1994-077B
CENTER_NAME    = EARTH
REF_FRAME      = TEME
TIME_SYSTEM    = UTC
MEAN_ELEMENT_THEORY = SGP/SGP4

EPOCH          = 2026-03-27T13:47:23.339616
MEAN_MOTION    = 14.15569196
ECCENTRICITY   = .00020203
INCLINATION    = 70.9836
RA_OF_ASC_NODE = 314.8647
ARG_OF_PERICENTER = 197.8268
MEAN_ANOMALY   = 162.2784

EPHEMERIS_TYPE = 0
CLASSIFICATION_TYPE = U
NORAD_CAT_ID   = 23405
ELEMENT_SET_NO = 999
REV_AT_EPOCH   = 61876
BSTAR          = .14633454E-4
MEAN_MOTION_DOT = -.19E-6
MEAN_MOTION_DDOT = 0

CCSDS_OMM_VERS = 2.0
CREATION_DATE  = 
ORIGINATOR     = 

OBJECT_NAME    = ARIANE 40+ R/B
OBJECT_ID      = 1995-021B
CENTER_NAME    = EARTH
REF_FRAME      = TEME
TIME_SYSTEM    = UTC
MEAN_ELEMENT_THEORY = SGP/SGP4

EPOCH          = 2026-03-27T11:00:47.104992
MEAN_MOTION    = 14.39784847
ECCENTRICITY   = .00079733
INCLINATION    = 98.4466
RA_OF_ASC_NODE = 157.6980
ARG_OF_PERICENTER = 90.6850
MEAN_ANOMALY   = 279.9781

EPHEMERIS_TYPE = 0
CLASSIFICATION_TYPE = U
NORAD_CAT_ID   = 23561
ELEMENT_SET_NO = 999
REV_AT_EPOCH   = 62180
BSTAR          = .10237142E-3
MEAN_MOTION_DOT = .278E-5
MEAN_MOTION_DDOT = 0

CCSDS_OMM_VERS = 2.0
CREATION_DATE  = 
ORIGINATOR     = 

OBJECT_NAME    = SL-16 R/B
OBJECT_ID      = 1995-058B
CENTER_NAME    = EARTH
REF_FRAME      = TEME
TIME_SYSTEM    = UTC
MEAN_ELEMENT_THEORY = SGP/SGP4

EPOCH          = 2026-03-27T13:58:41.613312
MEAN_MOTION    = 14.15499613
ECCENTRICITY   = .00101123
INCLINATION    = 71.0206
RA_OF_ASC_NODE = 142.6924
ARG_OF_PERICENTER = 92.6332
MEAN_ANOMALY   = 267.5949

EPHEMERIS_TYPE = 0
CLASSIFICATION_TYPE = U
NORAD_CAT_ID   = 23705
ELEMENT_SET_NO = 999
REV_AT_EPOCH   = 57038
BSTAR          = -.1012605E-3
MEAN_MOTION_DOT = -.246E-5
MEAN_MOTION_DDOT = 0

CCSDS_OMM_VERS = 2.0
CREATION_DATE  = 
ORIGINATOR     = 

OBJECT_NAME    = SL-16 R/B
OBJECT_ID      = 1996-051B
CENTER_NAME    = EARTH
REF_FRAME      = TEME
TIME_SYSTEM    = UTC
MEAN_ELEMENT_THEORY = SGP/SGP4

EPOCH          = 2026-03-27T14:06:42.437952
MEAN_MOTION    = 14.12420658
ECCENTRICITY   = .00136094
INCLINATION    = 70.7588
RA_OF_ASC_NODE = 137.3571
ARG_OF_PERICENTER = 119.2534
MEAN_ANOMALY   = 240.9948

EPHEMERIS_TYPE = 0
CLASSIFICATION_TYPE = U
NORAD_CAT_ID   = 24298
ELEMENT_SET_NO = 999
REV_AT_EPOCH   = 52417
BSTAR          = .76073655E-4
MEAN_MOTION_DOT = .91E-6
MEAN_MOTION_DDOT = 0

CCSDS_OMM_VERS = 2.0
CREATION_DATE  = 
ORIGINATOR     = 

OBJECT_NAME    = ORBVIEW 2 (SEASTAR)
OBJECT_ID      = 1997-037A
CENTER_NAME    = EARTH
REF_FRAME      = TEME
TIME_SYSTEM    = UTC
MEAN_ELEMENT_THEORY = SGP/SGP4

EPOCH          = 2026-03-27T11:17:43.568160
MEAN_MOTION    = 14.35507038
ECCENTRICITY   = .00024735
INCLINATION    = 98.8599
RA_OF_ASC_NODE = 251.2565
ARG_OF_PERICENTER = 33.8958
MEAN_ANOMALY   = 326.2384

EPHEMERIS_TYPE = 0
CLASSIFICATION_TYPE = U
NORAD_CAT_ID   = 24883
ELEMENT_SET_NO = 999
REV_AT_EPOCH   = 51102
BSTAR          = .11900442E-3
MEAN_MOTION_DOT = .296E-5
MEAN_MOTION_DDOT = 0

CCSDS_OMM_VERS = 2.0
CREATION_DATE  = 
ORIGINATOR     = 

OBJECT_NAME    = SL-16 R/B
OBJECT_ID      = 1998-043G
CENTER_NAME    = EARTH
REF_FRAME      = TEME
TIME_SYSTEM    = UTC
MEAN_ELEMENT_THEORY = SGP/SGP4

EPOCH          = 2026-03-27T11:35:22.149600
MEAN_MOTION    = 14.26053768
ECCENTRICITY   = .00092703
INCLINATION    = 98.8284
RA_OF_ASC_NODE = 39.9757
ARG_OF_PERICENTER = 328.6819
MEAN_ANOMALY   = 31.3807

EPHEMERIS_TYPE = 0
CLASSIFICATION_TYPE = U
NORAD_CAT_ID   = 25400
ELEMENT_SET_NO = 999
REV_AT_EPOCH   = 44152
BSTAR          = .45982144E-4
MEAN_MOTION_DOT = .64E-6
MEAN_MOTION_DDOT = 0

